ONEWEB-0589             
1 54655U 22166P   26041.10278813  .00000032  00000+0  46186-4 0  9998
2 54655  87.9184 269.3375 0002009  57.6186 302.5142 13.21824551154754
ONEWEB-0590             
1 54656U 22166Q   26041.05163830  .00000104  00000+0  21907-3 0  9998
2 54656  87.9187 269.3262 0002033  86.9013 273.2354 13.21824574154736
ONEWEB-0591             
1 54657U 22166R   26041.13899743  .00000053  00000+0  95896-4 0  9999
2 54657  87.9180 269.3326 0001688  81.6176 278.5150 13.21825372154771
ONEWEB-0592             
1 54658U 22166S   26041.14229696  .00000006  00000+0 -16704-4 0  9995
2 54658  87.9193 269.2995 0001635  81.6809 278.4511 13.21825562154650
ONEWEB-0593             
1 54659U 22166T   26041.08962468 -.00000036  00000+0 -11821-3 0  9998
2 54659  87.9189 269.3308 0001469  79.1302 280.9997 13.21824531154752
ONEWEB-0594             
1 54660U 22166U   26041.03368249  .00000051  00000+0  92029-4 0  9997
2 54660  87.9184 269.3609 0001523  89.1918 270.9390 13.21825723154769
ONEWEB-0595             
1 54661U 22166V   26041.01063759  .00000053  00000+0  95821-4 0  9999
2 54661  87.9186 269.3371 0001635  90.3831 269.7490 13.21825201154735
ONEWEB-0596             
1 54662U 22166W   26041.13570299  .00000014  00000+0  17333-5 0  9995
2 54662  87.9185 269.3302 0001639  87.4452 272.6869 13.21825967154753
ONEWEB-0597             
1 54663U 22166X   26040.66341707  .00000059  00000+0  11040-3 0  9999
2 54663  87.9188 269.4296 0001617  79.4206 280.7110 13.21823830154693
ONEWEB-0600             
1 54664U 22166Y   26041.09949201 -.00000198  00000+0 -51082-3 0  9997
2 54664  87.9188 269.3336 0001480  78.3649 281.7651 13.21824385154726
ONEWEB-0601             
1 54665U 22166Z   26041.09126426 -.00000039  00000+0 -12637-3 0  9991
2 54665  87.9186 269.3522 0001634  71.8053 288.3258 13.21823905154914
ONEWEB-0602             
1 54666U 22166AA  26041.13158655  .00000017  00000+0  10210-4 0  9996
2 54666  87.9187 269.3497 0001269  79.7654 280.3623 13.21825513154763
ONEWEB-0603             
1 54667U 22166AB  26041.13734380  .00000052  00000+0  93552-4 0  9991
2 54667  87.9195 269.2922 0001562  79.4818 280.6492 13.21825782154697
ONEWEB-0604             
1 54668U 22166AC  26041.05013054  .00000084  00000+0  17285-3 0  9994
2 54668  87.9188 269.3246 0001530  87.7331 272.3978 13.21825166154645
ONEWEB-0605             
1 54669U 22166AD  26041.11925419  .00000093  00000+0  19260-3 0  9994
2 54669  87.9182 269.3373 0002026  70.3070 289.8283 13.21826047154720
ONEWEB-0606             
1 54670U 22166AE  26041.14063448 -.00000038  00000+0 -12284-3 0  9994
2 54670  87.9184 269.3455 0001659  91.0331 269.0993 13.21824347154781
ONEWEB-0607             
1 54671U 22166AF  26041.03202882  .00000047  00000+0  83202-4 0  9997
2 54671  87.9186 269.3302 0001542  78.7023 281.4284 13.21823858154749
ONEWEB-0608             
1 54672U 22166AG  26041.03862039  .00000121  00000+0  26171-3 0  9998
2 54672  87.9192 269.3211 0001800  68.4566 291.6760 13.21825338154759
ONEWEB-0610             
1 54673U 22166AH  26041.09456733  .00000054  00000+0  98838-4 0  9990
2 54673  87.9182 269.3371 0001774  63.4720 296.6596 13.21826242154660
ONEWEB-0611             
1 54674U 22166AJ  26041.08797967 -.00000017  00000+0 -71766-4 0  9999
2 54674  87.9186 269.3355 0001492  91.4734 268.6571 13.21824522154650
ONEWEB-0612             
1 54675U 22166AK  26041.10115359  .00000039  00000+0  61730-4 0  9994
2 54675  87.9192 269.3141 0001553  77.5671 282.5636 13.21827613154644
ONEWEB-0615             
1 54676U 22166AL  26041.15708817 -.00000091  00000+0 -25107-3 0  9994
2 54676  87.9186 269.3285 0001557  82.6007 277.5304 13.21824446154660
ONEWEB-0655             
1 54677U 22166AM  26041.13240571  .00000000  00000+0 -32365-4 0  9995
2 54677  87.9187 269.3362 0001357  78.0746 282.0540 13.21824388154652
ONEWEB-0659             
1 54678U 22166AN  26041.07316841  .00000014  00000+0  27033-5 0  9994
2 54678  87.9181 269.3491 0001635  86.5516 273.5805 13.21824709154733
ONEWEB-0685             
1 54679U 22166AP  26041.14897439 -.00000021  00000+0 -83095-4 0  9999
2 54679  87.9183 269.3290 0001575  77.7136 282.4174 13.21811141154639
ONEWEB-0712             
1 54680U 22166AQ  26040.99308925 -.00000042  00000+0 -14361-3 0  9992
2 54680  87.9007 254.0890 0000991  84.8322 275.2921 13.16595238155327
ONEWEB-0714             
1 54681U 22166AR  26041.15544463 -.00000070  00000+0 -20111-3 0  9992
2 54681  87.9185 269.3220 0001427  78.6435 281.4859 13.21826013154751
ONEWEB-0532             
1 55140U 23004A   26040.99213073  .00000037  00000+0  62793-4 0  9990
2 55140  87.9111  31.1290 0002273  83.2710 276.8680 13.17648255150831
ONEWEB-0533             
1 55141U 23004B   26040.98887571  .00000516  00000+0  13978-2 0  9991
2 55141  87.8959  15.9122 0001842  76.2706 283.8627 13.12443198151376
ONEWEB-0541             
1 55142U 23004C   26040.99559037  .00000587  00000+0  16214-2 0  9990
2 55142  87.8828  46.3549 0001964  93.1944 266.9409 13.11417440149276
ONEWEB-0543             
1 55143U 23004D   26040.84306071  .00000023  00000+0  25466-4 0  9999
2 55143  87.9204   0.7657 0001580  81.5080 278.6232 13.18687011152915
ONEWEB-0544             
1 55144U 23004E   26040.83645676  .00000023  00000+0  24407-4 0  9990
2 55144  87.9212   0.7608 0001820  90.1667 269.9673 13.18684352152912
ONEWEB-0560             
1 55145U 23004F   26040.82985625 -.00000006  00000+0 -47621-4 0  9997
2 55145  87.9216   0.7516 0001743  87.5636 272.5696 13.18687983152924
ONEWEB-0565             
1 55146U 23004G   26040.82326351  .00000026  00000+0  32740-4 0  9999
2 55146  87.9208   0.7934 0002183  93.6055 266.5327 13.18687807152910
ONEWEB-0567             
1 55147U 23004H   26040.89253909  .00000065  00000+0  13219-3 0  9997
2 55147  87.9216   0.7512 0001949  92.9619 267.1736 13.18688042152923
ONEWEB-0569             
1 55148U 23004J   26040.86770486 -.00000218  00000+0 -63053-3 0  9992
2 55148  87.9042 345.5186 0001673 111.3362 248.7946 13.13471858153461
ONEWEB-0570             
1 55149U 23004K   26040.88264200  .00000031  00000+0  45370-4 0  9991
2 55149  87.9212   0.7520 0002352  82.8423 277.2977 13.18685034152916
ONEWEB-0571             
1 55150U 23004L   26040.87603749  .00000025  00000+0  29861-4 0  9997
2 55150  87.9212   0.7521 0002467 111.9502 248.1892 13.18688512152926
ONEWEB-0572             
1 55151U 23004M   26041.02250483 -.00000005  00000+0 -46073-4 0  9993
2 55151  87.9103  31.1287 0002009  92.2895 267.8467 13.17647858150731
ONEWEB-0573             
1 55152U 23004N   26040.86944447  .00000027  00000+0  35191-4 0  9996
2 55152  87.9210   0.7559 0002519  95.2662 264.8758 13.18684374152913
ONEWEB-0588             
1 55153U 23004P   26040.93871126  .00000017  00000+0  11274-4 0  9993
2 55153  87.9214   0.7421 0002310  85.3983 274.7413 13.18687997152924
ONEWEB-0598             
1 55154U 23004Q   26040.97353781 -.00000216  00000+0 -64556-3 0  9993
2 55154  87.8817  46.3825 0001883 108.4791 251.6542 13.11418654149226
ONEWEB-0599             
1 55155U 23004R   26040.98369247  .00000028  00000+0  37676-4 0  9992
2 55155  87.9101  31.1356 0001722  89.0316 271.1013 13.17648480150730
ONEWEB-0614             
1 55156U 23004S   26040.96845126 -.00000425  00000+0 -12354-2 0  9993
2 55156  87.8817  46.3924 0002140  82.4609 277.6762 13.11418695149164
ONEWEB-0616             
1 55157U 23004T   26041.02587528 -.00000052  00000+0 -16719-3 0  9997
2 55157  87.9114  31.1247 0000873  88.8615 271.2617 13.17646769150953
ONEWEB-0617             
1 55158U 23004U   26041.03287277 -.00000445  00000+0 -12903-2 0  9993
2 55158  87.8824  46.3608 0002241  89.8859 270.2525 13.11417373149194
ONEWEB-0618             
1 55159U 23004V   26041.09300645  .00004429  00000+0  25828-3 0  9990
2 55159  86.9045 229.1756 0014890  50.6292 309.6263 15.11615204163057
ONEWEB-0619             
1 55160U 23004W   26040.98200299  .00000019  00000+0  16314-4 0  9995
2 55160  87.9112  31.1069 0001829  72.9745 287.1587 13.17650624150842
ONEWEB-0620             
1 55161U 23004X   26041.02779690 -.00000341  00000+0 -99888-3 0  9994
2 55161  87.8817  46.3793 0002079  96.4041 263.7324 13.11415496149166
ONEWEB-0621             
1 55162U 23004Y   26040.97863272 -.00000034  00000+0 -13131-3 0  9994
2 55162  87.8831  46.3657 0001983  83.2582 276.8771 13.11418922149134
ONEWEB-0622             
1 55163U 23004Z   26041.06001383  .00000169  00000+0  44039-3 0  9991
2 55163  87.8822  46.3538 0002624  85.8162 274.3265 13.11418290149137
ONEWEB-0623             
1 55164U 23004AA  26040.97693902  .00000042  00000+0  73711-4 0  9995
2 55164  87.9100  31.1524 0002422  71.0301 289.1093 13.17647451150834
ONEWEB-0624             
1 55165U 23004AB  26040.84940767  .00000157  00000+0  39813-3 0  9997
2 55165  87.8953  15.8831 0002080  79.0442 281.0921 13.12922612151364
ONEWEB-0625             
1 55166U 23004AC  26040.96682309  .00000062  00000+0  12539-3 0  9997
2 55166  87.9103  31.1480 0001663  85.2555 274.8767 13.17650444150828
ONEWEB-0626             
1 55167U 23004AD  26040.95668825  .00000050  00000+0  95556-4 0  9992
2 55167  87.9103  31.1508 0002031 102.3975 257.7384 13.17650666150828
ONEWEB-0627             
1 55168U 23004AE  26041.02081722  .00000006  00000+0 -16475-4 0  9992
2 55168  87.9101  31.1379 0002318  79.0705 281.0687 13.17648087150833
ONEWEB-0628             
1 55169U 23004AF  26040.93649021 -.00000046  00000+0 -16331-3 0  9999
2 55169  87.8961  15.9081 0002291  66.7688 293.3682 13.12442402151346
ONEWEB-0629             
1 55170U 23004AG  26040.46479592  .00000020  00000+0  18008-4 0  9997
2 55170  87.9100  31.2463 0001814  74.8848 285.2484 13.17648923150763
ONEWEB-0631             
1 55171U 23004AH  26040.93213006 -.00000008  00000+0 -52962-4 0  9991
2 55171  87.9227   0.6966 0002283  93.6008 266.5386 13.18687041152906
